{"type": "Feature", "properties": {"produto": "ObraVigia", "etapa": 230, "projetos": 8, "ipi_total": 513.3333333333334, "tempo_viagem_table_min": 96.81166666666665, "tempo_viagem_route_min": 96.81166666666667, "distancia_table_km": 100.7972, "distancia_route_km": 100.7972}, "geometry": {"coordinates": [[-48.651396, -27.025293], [-48.651375, -27.024637], [-48.651624, -27.024493], [-48.651703, -27.024447], [-48.651773, -27.02441], [-48.652137, -27.024213], [-48.652204, -27.024176], [-48.652107, -27.02404], [-48.652068, -27.023977], [-48.652027, -27.023876], [-48.651804, -27.023202], [-48.651789, -27.023158], [-48.651751, -27.022983], [-48.651535, -27.021715], [-48.651435, -27.021158], [-48.65152, -27.021089], [-48.651869, -27.021063], [-48.651988, -27.021001], [-48.651979, -27.020812], [-48.651963, -27.020426], [-48.651954, -27.020324], [-48.651953, -27.020267], [-48.651947, -27.020122], [-48.65195, -27.020041], [-48.651954, -27.019985], [-48.651977, -27.019861], [-48.651989, -27.019816], [-48.652015, -27.019753], [-48.652153, -27.019346], [-48.652169, -27.019311], [-48.652246, -27.019098], [-48.652392, -27.018694], [-48.652414, -27.018632], [-48.652568, -27.01822], [-48.652599, -27.018133], [-48.652694, -27.017741], [-48.652727, -27.017595], [-48.652765, -27.017373], [-48.652767, -27.017129], [-48.65277, -27.016858], [-48.652739, -27.016388], [-48.652741, -27.016126], [-48.652761, -27.015942], [-48.652808, -27.015727], [-48.652887, -27.015248], [-48.652906, -27.015122], [-48.652916, -27.015052], [-48.652928, -27.014842], [-48.652899, -27.014715], [-48.652823, -27.014596], [-48.65272, -27.014513], [-48.652607, -27.014449], [-48.652457, -27.014412], [-48.65227, -27.014386], [-48.652049, -27.014367], [-48.651944, -27.014358], [-48.651854, -27.014351], [-48.651581, -27.014337], [-48.651225, -27.014294], [-48.650991, -27.014245], [-48.650931, -27.014249], [-48.650575, -27.014148], [-48.65041, -27.014093], [-48.650309, -27.014061], [-48.649972, -27.013955], [-48.649923, -27.013912], [-48.648852, -27.013571], [-48.648535, -27.013452], [-48.648263, -27.013317], [-48.648145, -27.013213], [-48.648074, -27.013125], [-48.647997, -27.013002], [-48.647939, -27.01285], [-48.647919, -27.012683], [-48.647899, -27.012303], [-48.647876, -27.01192], [-48.647874, -27.011806], [-48.647885, -27.011731], [-48.64791, -27.011646], [-48.647974, -27.011524], [-48.648042, -27.011421], [-48.64811, -27.011323], [-48.648289, -27.011055], [-48.648357, -27.010955], [-48.648586, -27.010626], [-48.64861, -27.010591], [-48.648635, -27.010541], [-48.648649, -27.010447], [-48.64868, -27.010371], [-48.648691, -27.010329], [-48.648693, -27.010288], [-48.648696, -27.010192], [-48.648705, -27.010123], [-48.648727, -27.010064], [-48.648849, -27.009731], [-48.648942, -27.009427], [-48.648959, -27.009334], [-48.648962, -27.009187], [-48.648906, -27.00824], [-48.648878, -27.008069], [-48.648828, -27.007933], [-48.648731, -27.007769], [-48.648639, -27.007643], [-48.648485, -27.0075], [-48.647989, -27.00715], [-48.647744, -27.006985], [-48.647584, -27.00686], [-48.647502, -27.006783], [-48.647403, -27.006676], [-48.647342, -27.00658], [-48.647288, -27.006459], [-48.647253, -27.006354], [-48.647219, -27.00619], [-48.647136, -27.005757], [-48.647125, -27.005675], [-48.647088, -27.00533], [-48.647079, -27.005219], [-48.647063, -27.005099], [-48.647057, -27.00505], [-48.646928, -27.004089], [-48.646903, -27.003901], [-48.646869, -27.003677], [-48.646833, -27.003442], [-48.646793, -27.003181], [-48.646734, -27.002823], [-48.646631, -27.002126], [-48.646524, -27.00138], [-48.646496, -27.001184], [-48.64647, -27.001087], [-48.646429, -27.00102], [-48.646379, -27.000963], [-48.646328, -27.000916], [-48.646257, -27.00085], [-48.646226, -27.000809], [-48.646212, -27.000771], [-48.64621, -27.00073], [-48.646219, -27.00069], [-48.646234, -27.000665], [-48.646257, -27.00064], [-48.646303, -27.000537], [-48.646338, -27.000413], [-48.646339, -27.000307], [-48.64632, -27.000179], [-48.646261, -26.999982], [-48.646073, -26.999783], [-48.646063, -26.999776], [-48.646043, -26.999761], [-48.645998, -26.999732], [-48.645852, -26.999685], [-48.644808, -26.999993], [-48.644633, -27.000044], [-48.643924, -27.000178], [-48.642988, -27.00033], [-48.642377, -27.00042], [-48.63814, -27.001666], [-48.637894, -27.00174], [-48.63578, -27.00236], [-48.630603, -27.003879], [-48.630321, -27.003963], [-48.625423, -27.005392], [-48.624758, -27.005586], [-48.622164, -27.006342], [-48.620564, -27.006813], [-48.619237, -27.007209], [-48.618947, -27.007306], [-48.61861, -27.007429], [-48.618318, -27.007549], [-48.618055, -27.007664], [-48.61782, -27.007773], [-48.61756, -27.007908], [-48.617264, -27.008072], [-48.617021, -27.008224], [-48.616776, -27.008389], [-48.616548, -27.008553], [-48.616349, -27.008708], [-48.616144, -27.008878], [-48.615945, -27.009052], [-48.61578, -27.009206], [-48.615511, -27.009602], [-48.615438, -27.009728], [-48.61501, -27.01052], [-48.614839, -27.01079], [-48.61477, -27.010911], [-48.614675, -27.011079], [-48.614491, -27.01142], [-48.614483, -27.011435], [-48.614303, -27.011775], [-48.614364, -27.01187], [-48.614423, -27.011963], [-48.61445, -27.011973], [-48.614998, -27.01222], [-48.615085, -27.012241], [-48.615168, -27.012246], [-48.615243, -27.012246], [-48.615333, -27.012229], [-48.61542, -27.012197], [-48.615504, -27.012149], [-48.615589, -27.012083], [-48.615645, -27.012017], [-48.615706, -27.011921], [-48.615726, -27.011846], [-48.615736, -27.01174], [-48.615723, -27.011639], [-48.615695, -27.011553], [-48.61564, -27.011464], [-48.615565, -27.011384], [-48.615457, -27.01131], [-48.615236, -27.0112], [-48.613636, -27.010413], [-48.613371, -27.010283], [-48.613238, -27.010226], [-48.613102, -27.010177], [-48.613015, -27.010146], [-48.612983, -27.010141], [-48.612883, -27.010143], [-48.612784, -27.010148], [-48.612683, -27.010156], [-48.612583, -27.010168], [-48.612393, -27.010254], [-48.611805, -27.010508], [-48.611698, -27.010554], [-48.61154, -27.010608], [-48.61141, -27.010646], [-48.611289, -27.010671], [-48.611151, -27.010688], [-48.611024, -27.010694], [-48.610912, -27.010681], [-48.610805, -27.01065], [-48.610569, -27.010545], [-48.610495, -27.010507], [-48.610143, -27.010322], [-48.609574, -27.010005], [-48.60928, -27.009862], [-48.609149, -27.009814], [-48.608992, -27.009774], [-48.608794, -27.009741], [-48.608623, -27.009719], [-48.608162, -27.009672], [-48.607695, -27.009628], [-48.607536, -27.009605], [-48.607399, -27.009567], [-48.607233, -27.009497], [-48.607003, -27.009382], [-48.606525, -27.009134], [-48.606272, -27.009014], [-48.606021, -27.008902], [-48.605422, -27.008681], [-48.605036, -27.008542], [-48.604734, -27.008426], [-48.604654, -27.008407], [-48.604543, -27.008392], [-48.604437, -27.008395], [-48.604424, -27.008396], [-48.604399, -27.008398], [-48.604352, -27.008404], [-48.604143, -27.008444], [-48.604005, -27.008493], [-48.603882, -27.008548], [-48.603744, -27.008629], [-48.60363, -27.008708], [-48.603541, -27.008787], [-48.603275, -27.009021], [-48.603154, -27.009138], [-48.602957, -27.009326], [-48.602916, -27.009365], [-48.602815, -27.009446], [-48.602702, -27.009509], [-48.602597, -27.009552], [-48.602448, -27.00959], [-48.602254, -27.009611], [-48.601573, -27.009671], [-48.601478, -27.009646], [-48.601389, -27.009606], [-48.601309, -27.009553], [-48.601308, -27.009481], [-48.601307, -27.009403], [-48.601303, -27.008904], [-48.6013, -27.008575], [-48.601298, -27.008387], [-48.601295, -27.008], [-48.601293, -27.007903], [-48.601292, -27.007826], [-48.601291, -27.007678], [-48.601322, -27.007611], [-48.601358, -27.007546], [-48.601399, -27.007483], [-48.601445, -27.007423], [-48.602064, -27.007503], [-48.602221, -27.007524], [-48.602263, -27.007529], [-48.603634, -27.007708], [-48.603651, -27.00771], [-48.603879, -27.00774], [-48.603956, -27.007755], [-48.604006, -27.007778], [-48.604026, -27.007806], [-48.60404, -27.007883], [-48.604103, -27.008225], [-48.604143, -27.008444], [-48.604352, -27.008404], [-48.604399, -27.008398], [-48.604424, -27.008396], [-48.604437, -27.008395], [-48.604543, -27.008392], [-48.604654, -27.008407], [-48.604734, -27.008426], [-48.605036, -27.008542], [-48.605422, -27.008681], [-48.606021, -27.008902], [-48.606272, -27.009014], [-48.606525, -27.009134], [-48.607003, -27.009382], [-48.607233, -27.009497], [-48.607399, -27.009567], [-48.607536, -27.009605], [-48.607695, -27.009628], [-48.608162, -27.009672], [-48.608623, -27.009719], [-48.608794, -27.009741], [-48.608992, -27.009774], [-48.609149, -27.009814], [-48.60928, -27.009862], [-48.609574, -27.010005], [-48.610143, -27.010322], [-48.610495, -27.010507], [-48.610569, -27.010545], [-48.610805, -27.01065], [-48.610912, -27.010681], [-48.611024, -27.010694], [-48.611151, -27.010688], [-48.611289, -27.010671], [-48.61141, -27.010646], [-48.61154, -27.010608], [-48.611698, -27.010554], [-48.611805, -27.010508], [-48.612393, -27.010254], [-48.612583, -27.010168], [-48.612669, -27.010127], [-48.612752, -27.010082], [-48.612832, -27.010035], [-48.61291, -27.009984], [-48.612934, -27.009956], [-48.612967, -27.009937], [-48.613006, -27.009928], [-48.613045, -27.00993], [-48.613114, -27.009914], [-48.613185, -27.009899], [-48.613255, -27.009882], [-48.613337, -27.009857], [-48.613417, -27.009827], [-48.61364, -27.009748], [-48.613743, -27.009716], [-48.613878, -27.009679], [-48.613958, -27.009662], [-48.614042, -27.009652], [-48.614124, -27.009649], [-48.614215, -27.009652], [-48.614329, -27.009659], [-48.61451, -27.009676], [-48.614675, -27.009692], [-48.614827, -27.009686], [-48.614879, -27.009682], [-48.61493, -27.009673], [-48.614976, -27.009659], [-48.615021, -27.009642], [-48.615253, -27.009377], [-48.615541, -27.009086], [-48.615859, -27.008795], [-48.616229, -27.008493], [-48.616541, -27.008264], [-48.616875, -27.008037], [-48.617205, -27.007841], [-48.61751, -27.007669], [-48.617885, -27.007475], [-48.618107, -27.007367], [-48.618555, -27.007164], [-48.618815, -27.007059], [-48.619067, -27.006982], [-48.620721, -27.006544], [-48.622124, -27.006132], [-48.624297, -27.00551], [-48.624465, -27.005452], [-48.624782, -27.005316], [-48.624926, -27.005254], [-48.625036, -27.00521], [-48.625165, -27.005165], [-48.624966, -27.004263], [-48.624789, -27.003462], [-48.624765, -27.003356], [-48.62475, -27.003286], [-48.624624, -27.002612], [-48.624601, -27.002484], [-48.624543, -27.002488], [-48.624501, -27.002483], [-48.624469, -27.002456], [-48.624448, -27.002423], [-48.62444, -27.002385], [-48.624449, -27.002348], [-48.624509, -27.002086], [-48.624504, -27.002055], [-48.624461, -27.001734], [-48.624431, -27.001518], [-48.624278, -27.000398], [-48.624123, -26.999213], [-48.623991, -26.998203], [-48.623985, -26.998161], [-48.6243, -26.997897], [-48.624404, -26.997803], [-48.624525, -26.997687], [-48.624563, -26.99765], [-48.624682, -26.997534], [-48.624691, -26.997525], [-48.624744, -26.997472], [-48.625347, -26.996849], [-48.625435, -26.99675], [-48.625587, -26.996588], [-48.625631, -26.99654], [-48.625672, -26.996497], [-48.62577, -26.996394], [-48.625813, -26.996348], [-48.625865, -26.996289], [-48.625978, -26.99616], [-48.626603, -26.995455], [-48.626655, -26.995397], [-48.62672, -26.995323], [-48.626828, -26.9952], [-48.627174, -26.994798], [-48.627269, -26.994689], [-48.627309, -26.994643], [-48.627327, -26.994622], [-48.627551, -26.994361], [-48.628033, -26.993798], [-48.62808, -26.993743], [-48.628101, -26.993717], [-48.628234, -26.993549], [-48.62834, -26.993398], [-48.628441, -26.993248], [-48.628525, -26.993117], [-48.628613, -26.992967], [-48.628649, -26.992885], [-48.628656, -26.992869], [-48.628722, -26.992712], [-48.628757, -26.992607], [-48.628789, -26.992494], [-48.628861, -26.99215], [-48.628926, -26.991836], [-48.629004, -26.991488], [-48.62905, -26.991276], [-48.629106, -26.991019], [-48.629133, -26.990917], [-48.629165, -26.990813], [-48.629206, -26.990698], [-48.629269, -26.990551], [-48.62932, -26.990433], [-48.629353, -26.990359], [-48.629366, -26.990335], [-48.629422, -26.990233], [-48.629572, -26.989957], [-48.629663, -26.989795], [-48.629784, -26.989593], [-48.629844, -26.989502], [-48.629895, -26.989433], [-48.62991, -26.989413], [-48.629964, -26.989344], [-48.630109, -26.989178], [-48.630259, -26.989017], [-48.630316, -26.988958], [-48.630372, -26.9889], [-48.630388, -26.988884], [-48.630499, -26.98877], [-48.630715, -26.988548], [-48.630767, -26.9885], [-48.630782, -26.988486], [-48.630936, -26.988344], [-48.631068, -26.988212], [-48.631121, -26.988158], [-48.631138, -26.988142], [-48.631322, -26.987958], [-48.631538, -26.987744], [-48.631552, -26.987731], [-48.631608, -26.987677], [-48.631921, -26.987375], [-48.631962, -26.98734], [-48.631988, -26.987329], [-48.632022, -26.987328], [-48.632072, -26.987348], [-48.632208, -26.987403], [-48.632269, -26.987397], [-48.632314, -26.987379], [-48.632367, -26.987341], [-48.632464, -26.987249], [-48.632545, -26.987169], [-48.632586, -26.987129], [-48.632617, -26.987079], [-48.632623, -26.987033], [-48.632609, -26.986989], [-48.632547, -26.986839], [-48.632544, -26.986818], [-48.632547, -26.9868], [-48.632552, -26.986787], [-48.632574, -26.98674], [-48.632595, -26.986714], [-48.632687, -26.986601], [-48.632831, -26.98642], [-48.632967, -26.986227], [-48.633046, -26.986086], [-48.633131, -26.985923], [-48.633191, -26.985784], [-48.63326, -26.985649], [-48.63331, -26.985563], [-48.633814, -26.985759], [-48.63397, -26.985833], [-48.634037, -26.985898], [-48.634479, -26.986222], [-48.634894, -26.98652], [-48.634964, -26.98657], [-48.635039, -26.986621], [-48.637038, -26.987962], [-48.639464, -26.989605], [-48.640418, -26.990252], [-48.641121, -26.99073], [-48.641467, -26.990966], [-48.641847, -26.991228], [-48.642535, -26.991702], [-48.645124, -26.993465], [-48.645312, -26.993595], [-48.645248, -26.993379], [-48.645155, -26.993152], [-48.645076, -26.992984], [-48.645005, -26.992856], [-48.644864, -26.992649], [-48.644821, -26.992586], [-48.644766, -26.992504], [-48.644778, -26.992385], [-48.644798, -26.992329], [-48.644842, -26.99226], [-48.64493, -26.992166], [-48.644986, -26.992108], [-48.645514, -26.991559], [-48.645658, -26.991506], [-48.645809, -26.99147], [-48.645963, -26.991453], [-48.646119, -26.991454], [-48.646273, -26.991473], [-48.646317, -26.991494], [-48.646697, -26.991685], [-48.646753, -26.991714], [-48.647494, -26.992074], [-48.648377, -26.992498], [-48.648893, -26.992749], [-48.649272, -26.992932], [-48.649303, -26.992947], [-48.650557, -26.993551], [-48.650706, -26.993644], [-48.65081, -26.99372], [-48.651151, -26.993966], [-48.651233, -26.994025], [-48.651392, -26.994141], [-48.651639, -26.994329], [-48.65258, -26.995079], [-48.652693, -26.995169], [-48.652821, -26.995266], [-48.652891, -26.995304], [-48.653012, -26.995355], [-48.653344, -26.99549], [-48.65349, -26.995567], [-48.653559, -26.995611], [-48.654008, -26.995914], [-48.654264, -26.996128], [-48.654364, -26.996239], [-48.654455, -26.996383], [-48.654498, -26.996452], [-48.654606, -26.996487], [-48.654664, -26.996502], [-48.654737, -26.996509], [-48.654793, -26.996505], [-48.65485, -26.996493], [-48.655323, -26.996356], [-48.655474, -26.996305], [-48.655636, -26.99625], [-48.655817, -26.996181], [-48.65601, -26.996104], [-48.656318, -26.995978], [-48.656623, -26.99584], [-48.656843, -26.995733], [-48.657049, -26.995622], [-48.657275, -26.995492], [-48.657435, -26.995396], [-48.657643, -26.995254], [-48.657932, -26.995045], [-48.659892, -26.993553], [-48.660369, -26.993189], [-48.660597, -26.99301], [-48.660821, -26.992819], [-48.661061, -26.992602], [-48.661295, -26.992377], [-48.661488, -26.992187], [-48.661657, -26.992009], [-48.661819, -26.991824], [-48.662127, -26.991445], [-48.662229, -26.991334], [-48.662305, -26.991262], [-48.662552, -26.991084], [-48.662677, -26.990994], [-48.66332, -26.990188], [-48.666565, -26.986089], [-48.666749, -26.985874], [-48.666912, -26.985694], [-48.667123, -26.985484], [-48.667336, -26.985293], [-48.667558, -26.985115], [-48.667782, -26.984949], [-48.66802, -26.984791], [-48.668229, -26.984665], [-48.66852, -26.984503], [-48.668752, -26.984384], [-48.668997, -26.98427], [-48.66922, -26.984178], [-48.669794, -26.983955], [-48.671282, -26.983407], [-48.67171, -26.983249], [-48.673132, -26.982725], [-48.673832, -26.982464], [-48.674093, -26.982364], [-48.674358, -26.982254], [-48.674579, -26.982153], [-48.674864, -26.982016], [-48.67503, -26.981933], [-48.675335, -26.981794], [-48.675541, -26.981708], [-48.675862, -26.981587], [-48.676307, -26.981421], [-48.67661, -26.981316], [-48.676849, -26.981244], [-48.677299, -26.98113], [-48.677562, -26.981056], [-48.677782, -26.980988], [-48.678038, -26.980903], [-48.678498, -26.980738], [-48.678729, -26.980653], [-48.678907, -26.98058], [-48.679167, -26.980465], [-48.679422, -26.980341], [-48.679599, -26.980244], [-48.679798, -26.980123], [-48.679972, -26.980012], [-48.680145, -26.979892], [-48.680335, -26.979745], [-48.680535, -26.979577], [-48.680745, -26.979391], [-48.6809, -26.97924], [-48.681075, -26.979056], [-48.681246, -26.978851], [-48.681434, -26.978604], [-48.681589, -26.978371], [-48.681734, -26.978131], [-48.68187, -26.977866], [-48.681971, -26.977631], [-48.682077, -26.977348], [-48.682174, -26.977033], [-48.682235, -26.976802], [-48.682295, -26.976535], [-48.682336, -26.976327], [-48.682465, -26.975539], [-48.682872, -26.972873], [-48.683163, -26.97096], [-48.68367, -26.967584], [-48.683695, -26.967414], [-48.683713, -26.967255], [-48.683719, -26.967058], [-48.683717, -26.966804], [-48.683695, -26.966153], [-48.683679, -26.96594], [-48.683647, -26.965683], [-48.683608, -26.96545], [-48.683535, -26.965076], [-48.683461, -26.964753], [-48.683384, -26.964506], [-48.683283, -26.96423], [-48.683171, -26.963937], [-48.683067, -26.963691], [-48.682965, -26.963471], [-48.682834, -26.963222], [-48.682697, -26.962996], [-48.682537, -26.962735], [-48.68236, -26.962469], [-48.682176, -26.962216], [-48.68103, -26.96062], [-48.68088, -26.960389], [-48.680747, -26.960175], [-48.680635, -26.959975], [-48.680499, -26.959717], [-48.680391, -26.95949], [-48.680265, -26.959201], [-48.680159, -26.958931], [-48.680072, -26.958667], [-48.68, -26.958414], [-48.679948, -26.958194], [-48.679904, -26.957966], [-48.679871, -26.957761], [-48.679842, -26.957532], [-48.67977, -26.956764], [-48.679533, -26.954522], [-48.679461, -26.953658], [-48.679447, -26.953455], [-48.679438, -26.95325], [-48.67944, -26.953082], [-48.679452, -26.952899], [-48.679464, -26.952715], [-48.6795, -26.952435], [-48.679539, -26.9522], [-48.679586, -26.951978], [-48.679641, -26.951768], [-48.679737, -26.951449], [-48.679833, -26.951167], [-48.67994, -26.950899], [-48.680047, -26.950679], [-48.680126, -26.950532], [-48.680228, -26.950369], [-48.68035, -26.950199], [-48.680521, -26.949978], [-48.680698, -26.949767], [-48.680895, -26.949554], [-48.681152, -26.949306], [-48.681387, -26.949094], [-48.681604, -26.948915], [-48.681757, -26.948797], [-48.681931, -26.948673], [-48.682106, -26.94856], [-48.682294, -26.94845], [-48.682493, -26.948341], [-48.68581, -26.94657], [-48.687815, -26.945514], [-48.688287, -26.945265], [-48.689452, -26.944652], [-48.690373, -26.944162], [-48.690951, -26.94385], [-48.691088, -26.943773], [-48.691228, -26.943693], [-48.691378, -26.943602], [-48.691537, -26.943496], [-48.691705, -26.943381], [-48.69187, -26.943259], [-48.692042, -26.943124], [-48.6922, -26.942993], [-48.692366, -26.942845], [-48.692655, -26.942578], [-48.692848, -26.9424], [-48.693086, -26.942172], [-48.693267, -26.941993], [-48.69474, -26.940514], [-48.695346, -26.939911], [-48.695567, -26.939687], [-48.696074, -26.939182], [-48.697221, -26.938037], [-48.697949, -26.937306], [-48.698635, -26.936618], [-48.699951, -26.935278], [-48.700704, -26.934513], [-48.700878, -26.934377], [-48.701578, -26.933672], [-48.702016, -26.933235], [-48.702512, -26.932743], [-48.702566, -26.932688], [-48.70291, -26.932336], [-48.703064, -26.932175], [-48.703235, -26.932001], [-48.7036, -26.931595], [-48.70373, -26.931438], [-48.704158, -26.930804], [-48.704329, -26.930527], [-48.704593, -26.930102], [-48.70488, -26.929548], [-48.704954, -26.929383], [-48.708166, -26.921651], [-48.708411, -26.921061], [-48.709453, -26.918552], [-48.709534, -26.918356], [-48.710594, -26.915809], [-48.711929, -26.912603], [-48.712882, -26.910312], [-48.713302, -26.909307], [-48.71385, -26.908011], [-48.715239, -26.904669], [-48.715396, -26.904251], [-48.71552, -26.903908], [-48.715777, -26.903181], [-48.715871, -26.902926], [-48.716005, -26.902593], [-48.716133, -26.902299], [-48.716756, -26.900919], [-48.717072, -26.900206], [-48.718088, -26.897776], [-48.718198, -26.897504], [-48.718816, -26.896041], [-48.720263, -26.89261], [-48.720899, -26.891097], [-48.721649, -26.889314], [-48.721751, -26.889056], [-48.722379, -26.887547], [-48.728304, -26.873313], [-48.729387, -26.870707], [-48.729639, -26.870094], [-48.72972, -26.869878], [-48.729782, -26.869699], [-48.729816, -26.869581], [-48.729845, -26.869482], [-48.729893, -26.869286], [-48.729942, -26.869082], [-48.729983, -26.868888], [-48.730015, -26.868708], [-48.730036, -26.868541], [-48.730055, -26.868357], [-48.730071, -26.868161], [-48.730088, -26.867834], [-48.730095, -26.867608], [-48.730095, -26.86741], [-48.730084, -26.867178], [-48.730069, -26.866951], [-48.730049, -26.866757], [-48.730018, -26.866544], [-48.729988, -26.866353], [-48.729937, -26.866111], [-48.729882, -26.865876], [-48.72981, -26.865613], [-48.729745, -26.865401], [-48.729669, -26.86516], [-48.728672, -26.862241], [-48.727997, -26.860264], [-48.727921, -26.860031], [-48.727857, -26.859808], [-48.727812, -26.859623], [-48.727765, -26.859401], [-48.727266, -26.856574], [-48.727222, -26.856356], [-48.727186, -26.856198], [-48.727025, -26.855572], [-48.726982, -26.855391], [-48.726947, -26.855223], [-48.726827, -26.854552], [-48.726791, -26.854397], [-48.726766, -26.854249], [-48.726753, -26.854187], [-48.726628, -26.853211], [-48.72662, -26.853139], [-48.726581, -26.852797], [-48.726546, -26.852578], [-48.726515, -26.852409], [-48.726454, -26.852166], [-48.726393, -26.851952], [-48.726313, -26.851719], [-48.726195, -26.851398], [-48.726094, -26.851162], [-48.725946, -26.85083], [-48.725803, -26.850554], [-48.725662, -26.850309], [-48.725436, -26.84994], [-48.725276, -26.849713], [-48.725083, -26.849457], [-48.724875, -26.849212], [-48.724604, -26.848914], [-48.724352, -26.848655], [-48.724158, -26.848474], [-48.723968, -26.848307], [-48.721394, -26.846114], [-48.720738, -26.845554], [-48.719692, -26.844662], [-48.719461, -26.844465], [-48.71833, -26.843501], [-48.717546, -26.842829], [-48.716364, -26.841822], [-48.716054, -26.841557], [-48.715539, -26.841116], [-48.715328, -26.840926], [-48.715154, -26.840763], [-48.714826, -26.840438], [-48.714426, -26.84003], [-48.714274, -26.83987], [-48.714051, -26.839624], [-48.713252, -26.838738], [-48.712626, -26.838043], [-48.712082, -26.837441], [-48.711848, -26.837189], [-48.711709, -26.837043], [-48.711571, -26.836905], [-48.711327, -26.836677], [-48.711125, -26.836505], [-48.710929, -26.836355], [-48.710779, -26.836248], [-48.710518, -26.836071], [-48.710322, -26.835947], [-48.710024, -26.835775], [-48.709738, -26.835632], [-48.709489, -26.835519], [-48.709105, -26.835359], [-48.708585, -26.83519], [-48.708194, -26.835088], [-48.707826, -26.835012], [-48.707527, -26.834966], [-48.707181, -26.834929], [-48.706903, -26.83491], [-48.706518, -26.834895], [-48.706006, -26.83489], [-48.701679, -26.83488], [-48.701342, -26.834875], [-48.701031, -26.834862], [-48.700765, -26.834846], [-48.70053, -26.834825], [-48.700253, -26.834786], [-48.699784, -26.834702], [-48.699446, -26.834632], [-48.699178, -26.834573], [-48.698859, -26.834492], [-48.698434, -26.834373], [-48.698078, -26.834266], [-48.69772, -26.834151], [-48.697433, -26.834048], [-48.697103, -26.833917], [-48.696793, -26.833781], [-48.696467, -26.833618], [-48.696129, -26.833422], [-48.695831, -26.833237], [-48.695492, -26.832992], [-48.695261, -26.832813], [-48.695018, -26.832604], [-48.694748, -26.832348], [-48.693891, -26.831469], [-48.693708, -26.831268], [-48.693571, -26.831102], [-48.693358, -26.830829], [-48.693184, -26.830587], [-48.693031, -26.830354], [-48.692888, -26.830115], [-48.692758, -26.829876], [-48.69221, -26.828805], [-48.691792, -26.827969], [-48.691686, -26.827766], [-48.691563, -26.827555], [-48.691384, -26.827271], [-48.691183, -26.826983], [-48.690977, -26.82671], [-48.690796, -26.826497], [-48.690648, -26.826337], [-48.690491, -26.826175], [-48.690289, -26.825987], [-48.68993, -26.825665], [-48.685787, -26.822064], [-48.685547, -26.821856], [-48.685279, -26.821615], [-48.685106, -26.821444], [-48.684906, -26.821224], [-48.684678, -26.820952], [-48.684499, -26.820709], [-48.684334, -26.820474], [-48.684208, -26.820271], [-48.684092, -26.820078], [-48.683953, -26.819806], [-48.68384, -26.819562], [-48.683717, -26.819257], [-48.683607, -26.818969], [-48.683513, -26.81866], [-48.683442, -26.818377], [-48.683375, -26.818041], [-48.683332, -26.817754], [-48.683308, -26.817421], [-48.683297, -26.817087], [-48.683244, -26.813922], [-48.683223, -26.812675], [-48.683209, -26.812376], [-48.683191, -26.81208], [-48.683154, -26.811771], [-48.683105, -26.81141], [-48.683041, -26.811064], [-48.682993, -26.810851], [-48.682879, -26.810463], [-48.682799, -26.810242], [-48.682687, -26.809945], [-48.682578, -26.80971], [-48.68243, -26.809431], [-48.682324, -26.809235], [-48.682194, -26.809031], [-48.682075, -26.808846], [-48.68192, -26.808628], [-48.681739, -26.808397], [-48.68154, -26.808157], [-48.68071, -26.807184], [-48.68054, -26.806976], [-48.680391, -26.806785], [-48.680198, -26.80652], [-48.680055, -26.806291], [-48.679911, -26.806047], [-48.679782, -26.805808], [-48.679674, -26.805588], [-48.679574, -26.805361], [-48.679459, -26.805071], [-48.679338, -26.804742], [-48.679258, -26.804504], [-48.67919, -26.804264], [-48.679098, -26.803855], [-48.678947, -26.803118], [-48.678858, -26.802657], [-48.678838, -26.802508], [-48.678813, -26.802296], [-48.678803, -26.802097], [-48.67879, -26.801747], [-48.678789, -26.801446], [-48.678796, -26.801134], [-48.678814, -26.800845], [-48.678905, -26.800307], [-48.678966, -26.800016], [-48.679017, -26.799793], [-48.679078, -26.799549], [-48.679318, -26.798527], [-48.679351, -26.798389], [-48.679383, -26.798255], [-48.679952, -26.795869], [-48.680836, -26.792159], [-48.680937, -26.791718], [-48.682401, -26.785655], [-48.682486, -26.785302], [-48.682933, -26.78345], [-48.683005, -26.783211], [-48.683083, -26.782972], [-48.68316, -26.782763], [-48.683238, -26.782573], [-48.68334, -26.78234], [-48.683899, -26.781059], [-48.684166, -26.780451], [-48.684288, -26.779689], [-48.684368, -26.77936], [-48.684262, -26.779348], [-48.684177, -26.779337], [-48.684051, -26.779337], [-48.683244, -26.779474], [-48.682963, -26.779522], [-48.682693, -26.779558], [-48.682587, -26.779569], [-48.682288, -26.780267], [-48.682587, -26.779569], [-48.68243, -26.779573], [-48.682071, -26.779576], [-48.681801, -26.779562], [-48.681697, -26.779544], [-48.681564, -26.779503], [-48.681459, -26.779453], [-48.681155, -26.779293], [-48.680793, -26.779099], [-48.681069, -26.778803], [-48.681472, -26.77837], [-48.681872, -26.77794], [-48.682049, -26.77775], [-48.681872, -26.77794], [-48.681472, -26.77837], [-48.682492, -26.779159], [-48.682963, -26.779522], [-48.683244, -26.779474], [-48.684051, -26.779337], [-48.684177, -26.779337], [-48.684262, -26.779348], [-48.684368, -26.77936], [-48.684543, -26.778967], [-48.684799, -26.778402], [-48.684851, -26.778287], [-48.684955, -26.77804], [-48.685061, -26.777745], [-48.685183, -26.777333], [-48.685304, -26.776812], [-48.685373, -26.776431], [-48.685439, -26.776012], [-48.68549, -26.775554], [-48.685509, -26.775311], [-48.685559, -26.77445], [-48.685611, -26.773603], [-48.685723, -26.772005], [-48.685864, -26.769718], [-48.686194, -26.768096], [-48.686306, -26.766285], [-48.686412, -26.764648], [-48.686423, -26.764497], [-48.686563, -26.762427], [-48.686582, -26.762206], [-48.686611, -26.761949], [-48.686646, -26.761704], [-48.686692, -26.761454], [-48.686738, -26.761251], [-48.686794, -26.761014], [-48.686871, -26.760755], [-48.686983, -26.760431], [-48.687109, -26.760111], [-48.687215, -26.759873], [-48.687312, -26.759666], [-48.68899, -26.75638], [-48.689425, -26.755508], [-48.689669, -26.755022], [-48.689761, -26.754846], [-48.689861, -26.754659], [-48.690154, -26.754105], [-48.690266, -26.753901], [-48.690417, -26.753642], [-48.690568, -26.7534], [-48.690754, -26.75311], [-48.69093, -26.752851], [-48.691098, -26.752622], [-48.691261, -26.752417], [-48.691427, -26.752215], [-48.691609, -26.752005], [-48.691764, -26.751838], [-48.691905, -26.751691], [-48.692051, -26.751548], [-48.693057, -26.750594], [-48.69359, -26.750085], [-48.694979, -26.748757], [-48.695163, -26.748577], [-48.69531, -26.748427], [-48.695506, -26.748223], [-48.695689, -26.748024], [-48.695823, -26.747872], [-48.695962, -26.7477], [-48.696097, -26.747523], [-48.696221, -26.747347], [-48.69635, -26.747151], [-48.696489, -26.746936], [-48.696578, -26.746783], [-48.696665, -26.746622], [-48.696728, -26.746499], [-48.69681, -26.746328], [-48.696905, -26.746111], [-48.697013, -26.745851], [-48.697114, -26.745583], [-48.697196, -26.745351], [-48.697261, -26.745145], [-48.697322, -26.744929], [-48.697396, -26.744649], [-48.697461, -26.744388], [-48.698875, -26.738325], [-48.698822, -26.738259], [-48.698774, -26.738174], [-48.698755, -26.73806], [-48.698834, -26.737542], [-48.699088, -26.736562], [-48.695925, -26.735795], [-48.694882, -26.735538], [-48.694487, -26.735441], [-48.693966, -26.735313], [-48.693904, -26.735442], [-48.69386, -26.735547], [-48.693712, -26.735971], [-48.693676, -26.736091], [-48.693661, -26.736175], [-48.693573, -26.736685], [-48.69351, -26.73697], [-48.693357, -26.737629], [-48.693804, -26.737748], [-48.693357, -26.737629], [-48.69351, -26.73697], [-48.693573, -26.736685], [-48.693661, -26.736175], [-48.693676, -26.736091], [-48.693712, -26.735971], [-48.69386, -26.735547], [-48.693904, -26.735442], [-48.693966, -26.735313], [-48.694487, -26.735441], [-48.694882, -26.735538], [-48.695925, -26.735795], [-48.699088, -26.736562], [-48.699306, -26.735628], [-48.69943, -26.735053], [-48.699592, -26.734363], [-48.699671, -26.734073], [-48.699705, -26.733957], [-48.699868, -26.733467], [-48.70012, -26.732914], [-48.700195, -26.732765], [-48.700363, -26.732413], [-48.700425, -26.732403], [-48.700496, -26.732378], [-48.700557, -26.732342], [-48.700642, -26.732271], [-48.70079, -26.731987], [-48.700891, -26.731781], [-48.701153, -26.731252], [-48.701267, -26.731031], [-48.701518, -26.730509], [-48.701663, -26.730194], [-48.701785, -26.729903], [-48.701893, -26.729589], [-48.701967, -26.729338], [-48.702041, -26.729019], [-48.702093, -26.728746], [-48.702135, -26.728456], [-48.702158, -26.728185], [-48.702169, -26.727985], [-48.702174, -26.726836], [-48.702177, -26.726252], [-48.702192, -26.723721], [-48.702192, -26.723638], [-48.702193, -26.723572], [-48.702209, -26.720659], [-48.702218, -26.719195], [-48.70201, -26.718602], [-48.702002, -26.718408], [-48.702006, -26.718008], [-48.70202, -26.717535], [-48.702054, -26.717049], [-48.702078, -26.716763], [-48.702125, -26.716318], [-48.702282, -26.715127], [-48.702831, -26.715117], [-48.702819, -26.715235], [-48.702801, -26.71531], [-48.702696, -26.715559], [-48.702664, -26.715679], [-48.702641, -26.715811], [-48.702574, -26.716532], [-48.702348, -26.717487], [-48.702329, -26.717799], [-48.702325, -26.718004], [-48.702306, -26.721097], [-48.70229, -26.723595], [-48.70229, -26.723664], [-48.702289, -26.723734], [-48.702278, -26.725519], [-48.702267, -26.727282], [-48.702263, -26.727924], [-48.702258, -26.728117], [-48.702248, -26.728295], [-48.70223, -26.728476], [-48.702206, -26.728663], [-48.702171, -26.728876], [-48.702138, -26.729055], [-48.702101, -26.729218], [-48.701903, -26.729985], [-48.701732, -26.730685], [-48.701656, -26.730935], [-48.701577, -26.73115], [-48.701495, -26.731356], [-48.701411, -26.731544], [-48.700901, -26.732611], [-48.70079, -26.732833], [-48.700705, -26.733014], [-48.700436, -26.733656], [-48.700358, -26.733821], [-48.700256, -26.734037], [-48.700085, -26.734393], [-48.700001, -26.734557], [-48.699925, -26.734726], [-48.699821, -26.734961], [-48.699746, -26.735169], [-48.699679, -26.735382], [-48.699605, -26.735666], [-48.699559, -26.735845], [-48.697586, -26.744301], [-48.697526, -26.744556], [-48.697442, -26.744882], [-48.697362, -26.745154], [-48.697289, -26.745381], [-48.697207, -26.745609], [-48.697091, -26.745915], [-48.696981, -26.746184], [-48.696897, -26.746372], [-48.696755, -26.746667], [-48.696658, -26.746843], [-48.69655, -26.747023], [-48.696334, -26.747361], [-48.696155, -26.747614], [-48.69599, -26.747825], [-48.695804, -26.748041], [-48.695436, -26.748437], [-48.695252, -26.748624], [-48.693682, -26.750133], [-48.693125, -26.750666], [-48.692189, -26.751546], [-48.691968, -26.751764], [-48.69179, -26.751951], [-48.691613, -26.752146], [-48.691404, -26.752391], [-48.691223, -26.752621], [-48.69105, -26.75285], [-48.690835, -26.753154], [-48.69072, -26.753329], [-48.690567, -26.753573], [-48.690427, -26.753809], [-48.690307, -26.754027], [-48.689879, -26.754824], [-48.689791, -26.754996], [-48.689025, -26.756524], [-48.687402, -26.759701], [-48.68728, -26.759959], [-48.687181, -26.76019], [-48.687104, -26.760383], [-48.687018, -26.760614], [-48.686937, -26.760872], [-48.686864, -26.761139], [-48.686799, -26.761417], [-48.686744, -26.761685], [-48.686697, -26.761997], [-48.686669, -26.762289], [-48.686547, -26.7645], [-48.686537, -26.764654], [-48.686401, -26.766502], [-48.686343, -26.767283], [-48.68587, -26.774849], [-48.685849, -26.775165], [-48.685819, -26.775468], [-48.685781, -26.775812], [-48.685749, -26.77607], [-48.685704, -26.776316], [-48.685474, -26.777418], [-48.685419, -26.777663], [-48.685351, -26.777913], [-48.685261, -26.778178], [-48.685136, -26.778488], [-48.683833, -26.781433], [-48.68379, -26.781529], [-48.68342, -26.782373], [-48.683307, -26.782629], [-48.683197, -26.782929], [-48.683094, -26.783251], [-48.683007, -26.783557], [-48.68292, -26.783896], [-48.682498, -26.785657], [-48.681036, -26.79175], [-48.680929, -26.792204], [-48.680825, -26.792639], [-48.680708, -26.793129], [-48.680567, -26.793721], [-48.680026, -26.795985], [-48.679479, -26.798276], [-48.679445, -26.798419], [-48.679414, -26.798549], [-48.679167, -26.799581], [-48.679093, -26.799889], [-48.679022, -26.80022], [-48.678938, -26.800652], [-48.678908, -26.800877], [-48.67889, -26.80113], [-48.678883, -26.801453], [-48.678888, -26.801643], [-48.678908, -26.802092], [-48.678924, -26.802321], [-48.678948, -26.802531], [-48.678978, -26.802737], [-48.679012, -26.802933], [-48.679175, -26.803733], [-48.679229, -26.803993], [-48.679285, -26.804225], [-48.679346, -26.804437], [-48.679418, -26.804658], [-48.679539, -26.804985], [-48.679623, -26.805209], [-48.679714, -26.80543], [-48.67981, -26.805647], [-48.679928, -26.805871], [-48.680021, -26.80604], [-48.680123, -26.806222], [-48.68025, -26.806419], [-48.680424, -26.806668], [-48.68065, -26.806959], [-48.680819, -26.807166], [-48.681816, -26.808335], [-48.681952, -26.808504], [-48.682088, -26.808682], [-48.682224, -26.808888], [-48.682406, -26.809187], [-48.682589, -26.809509], [-48.682726, -26.809784], [-48.68285, -26.810064], [-48.682984, -26.810432], [-48.683079, -26.810752], [-48.683147, -26.81105], [-48.683206, -26.8114], [-48.68325, -26.811758], [-48.683291, -26.812132], [-48.683323, -26.812651], [-48.683344, -26.813926], [-48.683355, -26.814604], [-48.683392, -26.816831], [-48.683407, -26.817131], [-48.683434, -26.817406], [-48.68347, -26.817677], [-48.683545, -26.818092], [-48.683591, -26.818305], [-48.683675, -26.818628], [-48.683775, -26.818976], [-48.683857, -26.819195], [-48.683982, -26.819488], [-48.684085, -26.819711], [-48.684191, -26.819915], [-48.684307, -26.820119], [-48.68443, -26.820318], [-48.684587, -26.82055], [-48.684783, -26.820817], [-48.685023, -26.821113], [-48.68518, -26.821281], [-48.685353, -26.821451], [-48.685592, -26.821687], [-48.686176, -26.822261], [-48.686384, -26.822459], [-48.686578, -26.822632], [-48.690012, -26.82561], [-48.690274, -26.82584], [-48.690522, -26.826068], [-48.690725, -26.826266], [-48.690904, -26.826459], [-48.691102, -26.826688], [-48.691274, -26.826907], [-48.691457, -26.827162], [-48.691574, -26.827334], [-48.691694, -26.827521], [-48.691824, -26.827746], [-48.691939, -26.82797], [-48.692447, -26.828972], [-48.692986, -26.829995], [-48.693157, -26.830281], [-48.69332, -26.830536], [-48.693449, -26.830715], [-48.693654, -26.830977], [-48.693876, -26.83124], [-48.69416, -26.831534], [-48.694398, -26.831799], [-48.694688, -26.832092], [-48.695013, -26.832419], [-48.695278, -26.832647], [-48.695549, -26.832856], [-48.695851, -26.833067], [-48.696134, -26.833241], [-48.696488, -26.833431], [-48.696571, -26.833468], [-48.696761, -26.833555], [-48.696973, -26.833645], [-48.69716, -26.833717], [-48.69761, -26.833876], [-48.698678, -26.834231], [-48.699204, -26.834397], [-48.699533, -26.83449], [-48.699896, -26.834579], [-48.700291, -26.834661], [-48.700635, -26.834708], [-48.700926, -26.834729], [-48.70129, -26.834744], [-48.70158, -26.834749], [-48.702905, -26.834752], [-48.706008, -26.834759], [-48.706481, -26.834765], [-48.706844, -26.834776], [-48.707226, -26.8348], [-48.707584, -26.83484], [-48.70793, -26.834897], [-48.708322, -26.834983], [-48.708679, -26.835079], [-48.709029, -26.835191], [-48.709401, -26.835332], [-48.709732, -26.835477], [-48.710054, -26.835633], [-48.710312, -26.835776], [-48.710541, -26.835915], [-48.710799, -26.836088], [-48.710954, -26.836197], [-48.71113, -26.836331], [-48.711348, -26.836512], [-48.71152, -26.836665], [-48.71174, -26.836874], [-48.711938, -26.837077], [-48.712273, -26.837445], [-48.712789, -26.838014], [-48.71346, -26.838756], [-48.714165, -26.839537], [-48.714492, -26.839894], [-48.715089, -26.840507], [-48.715286, -26.840705], [-48.715475, -26.840887], [-48.716224, -26.841539], [-48.717152, -26.842341], [-48.717838, -26.842923], [-48.718414, -26.843422], [-48.719526, -26.844375], [-48.719765, -26.84458], [-48.72082, -26.845485], [-48.721401, -26.84598], [-48.721814, -26.846331], [-48.723059, -26.847412], [-48.724134, -26.848332], [-48.724448, -26.848622], [-48.724667, -26.848837], [-48.724902, -26.849096], [-48.725173, -26.849423], [-48.725462, -26.849816], [-48.725693, -26.85017], [-48.725889, -26.850517], [-48.726063, -26.850858], [-48.726197, -26.851151], [-48.726519, -26.851974], [-48.726669, -26.852393], [-48.726799, -26.852814], [-48.7269, -26.853141], [-48.726991, -26.853496], [-48.727045, -26.853754], [-48.727112, -26.854136], [-48.727184, -26.85451], [-48.727243, -26.854877], [-48.727278, -26.855164], [-48.727302, -26.855446], [-48.727356, -26.85616], [-48.727372, -26.856358], [-48.727398, -26.856653], [-48.727428, -26.856885], [-48.727753, -26.858835], [-48.727809, -26.859139], [-48.727876, -26.859471], [-48.727951, -26.859775], [-48.728027, -26.860036], [-48.728768, -26.862222], [-48.729812, -26.865299], [-48.729885, -26.86553], [-48.729955, -26.865777], [-48.730014, -26.866008], [-48.730061, -26.86624], [-48.730113, -26.866528], [-48.730153, -26.866814], [-48.730179, -26.867092], [-48.730189, -26.867324], [-48.730195, -26.867716], [-48.730184, -26.867955], [-48.730167, -26.868209], [-48.730141, -26.868501], [-48.730114, -26.868714], [-48.730078, -26.868928], [-48.73002, -26.869194], [-48.729949, -26.869481], [-48.729919, -26.869582], [-48.729862, -26.869752], [-48.729787, -26.869962], [-48.729482, -26.870745], [-48.725125, -26.881183], [-48.724835, -26.881876], [-48.722461, -26.887571], [-48.722167, -26.888276], [-48.721763, -26.889352], [-48.72103, -26.891145], [-48.720766, -26.891804], [-48.720472, -26.892498], [-48.719725, -26.894282], [-48.719358, -26.895184], [-48.718954, -26.896095], [-48.717232, -26.900261], [-48.716918, -26.901232], [-48.716726, -26.901788], [-48.7165, -26.902371], [-48.716319, -26.902797], [-48.716098, -26.903261], [-48.715945, -26.903555], [-48.715707, -26.903957], [-48.715611, -26.904132], [-48.715528, -26.904287], [-48.715436, -26.904511], [-48.714787, -26.906017], [-48.714167, -26.907508], [-48.713945, -26.908052], [-48.713398, -26.909339], [-48.712978, -26.910342], [-48.712742, -26.910906], [-48.712655, -26.911115], [-48.712018, -26.912635], [-48.71068, -26.915833], [-48.709868, -26.917821], [-48.709631, -26.918385], [-48.709546, -26.918573], [-48.708625, -26.920754], [-48.708486, -26.92109], [-48.708243, -26.921676], [-48.70812, -26.921972], [-48.705096, -26.929298], [-48.705029, -26.929454], [-48.704972, -26.929576], [-48.704899, -26.929725], [-48.704758, -26.92999], [-48.704606, -26.930269], [-48.704481, -26.930485], [-48.704345, -26.930701], [-48.704209, -26.930911], [-48.704188, -26.930941], [-48.704052, -26.931143], [-48.703917, -26.931326], [-48.703781, -26.931502], [-48.703644, -26.931667], [-48.703367, -26.931984], [-48.703243, -26.932126], [-48.703125, -26.932251], [-48.703025, -26.932353], [-48.702611, -26.932771], [-48.702093, -26.933285], [-48.701707, -26.933664], [-48.700995, -26.934374], [-48.700297, -26.935071], [-48.700034, -26.935361], [-48.698717, -26.936675], [-48.698035, -26.93736], [-48.697316, -26.938098], [-48.695855, -26.93956], [-48.695516, -26.939897], [-48.694823, -26.940589], [-48.694675, -26.940743], [-48.69449, -26.940924], [-48.693364, -26.942029], [-48.69304, -26.942344], [-48.692664, -26.942697], [-48.692415, -26.942928], [-48.692202, -26.943114], [-48.69202, -26.94326], [-48.691753, -26.943462], [-48.691669, -26.943517], [-48.691428, -26.943679], [-48.691189, -26.943824], [-48.690936, -26.943965], [-48.682463, -26.948463], [-48.682238, -26.948589], [-48.682024, -26.948722], [-48.681809, -26.94887], [-48.681624, -26.949009], [-48.681444, -26.949154], [-48.681269, -26.949309], [-48.681007, -26.949564], [-48.680847, -26.949728], [-48.680716, -26.949873], [-48.680564, -26.950054], [-48.680428, -26.950227], [-48.680339, -26.950349], [-48.680259, -26.950468], [-48.680053, -26.950888], [-48.679941, -26.951114], [-48.679876, -26.951299], [-48.679752, -26.951721], [-48.679688, -26.95196], [-48.679636, -26.952206], [-48.679603, -26.952403], [-48.679579, -26.952576], [-48.67956, -26.952722], [-48.679545, -26.952903], [-48.679531, -26.953093], [-48.679528, -26.953266], [-48.679542, -26.953503], [-48.67956, -26.953732], [-48.679701, -26.955024], [-48.679945, -26.957588], [-48.679979, -26.957825], [-48.680025, -26.958088], [-48.680076, -26.958311], [-48.680142, -26.958556], [-48.680215, -26.958796], [-48.680308, -26.959046], [-48.680423, -26.95932], [-48.680551, -26.959605], [-48.680685, -26.959869], [-48.680825, -26.960121], [-48.680975, -26.960357], [-48.681121, -26.960578], [-48.681511, -26.96111], [-48.68207, -26.961871], [-48.682267, -26.962176], [-48.682487, -26.962492], [-48.682692, -26.962797], [-48.682835, -26.963033], [-48.68298, -26.963282], [-48.683108, -26.963539], [-48.683257, -26.963882], [-48.683375, -26.964185], [-48.683469, -26.964439], [-48.683547, -26.964691], [-48.683612, -26.964955], [-48.683683, -26.965318], [-48.683773, -26.965889], [-48.683785, -26.966032], [-48.683816, -26.966811], [-48.68382, -26.96705], [-48.683816, -26.967239], [-48.6838, -26.967401], [-48.683773, -26.967598], [-48.682978, -26.97285], [-48.682563, -26.975585], [-48.682448, -26.976289], [-48.682402, -26.976543], [-48.682353, -26.976771], [-48.682312, -26.976945], [-48.682259, -26.977131], [-48.682183, -26.977379], [-48.682114, -26.977564], [-48.682051, -26.977719], [-48.681965, -26.977907], [-48.681862, -26.978111], [-48.681734, -26.97833], [-48.681591, -26.978546], [-48.681449, -26.978745], [-48.681269, -26.978972], [-48.681084, -26.979184], [-48.680904, -26.979372], [-48.6807, -26.979557], [-48.680467, -26.979753], [-48.680227, -26.979943], [-48.680008, -26.980098], [-48.679808, -26.980221], [-48.679583, -26.980352], [-48.679332, -26.980482], [-48.679082, -26.980602], [-48.678843, -26.9807], [-48.67813, -26.98097], [-48.677979, -26.981029], [-48.677851, -26.981086], [-48.677626, -26.981196], [-48.67701, -26.981491], [-48.676829, -26.981575], [-48.676605, -26.981665], [-48.675773, -26.981973], [-48.675487, -26.982069], [-48.675224, -26.982147], [-48.674528, -26.982328], [-48.674331, -26.982386], [-48.6741, -26.982464], [-48.669599, -26.984127], [-48.669214, -26.984274], [-48.668959, -26.984379], [-48.668739, -26.984483], [-48.668545, -26.984585], [-48.668324, -26.984709], [-48.668109, -26.984842], [-48.66786, -26.985005], [-48.667656, -26.985154], [-48.667437, -26.985328], [-48.667227, -26.98552], [-48.667052, -26.98569], [-48.666862, -26.985886], [-48.666745, -26.986019], [-48.666595, -26.986198], [-48.665891, -26.987089], [-48.664739, -26.988546], [-48.662746, -26.991066], [-48.662386, -26.99151], [-48.662155, -26.991786], [-48.661946, -26.992032], [-48.661765, -26.992231], [-48.661583, -26.992423], [-48.66138, -26.992624], [-48.66118, -26.992805], [-48.661014, -26.992951], [-48.660902, -26.993046], [-48.660754, -26.993169], [-48.659519, -26.994119], [-48.658112, -26.9952], [-48.657887, -26.995366], [-48.657676, -26.995515], [-48.657402, -26.995692], [-48.657118, -26.995858], [-48.656882, -26.995988], [-48.6566, -26.996131], [-48.656311, -26.996262], [-48.656041, -26.996376], [-48.655744, -26.996491], [-48.655504, -26.996576], [-48.654721, -26.996833], [-48.654578, -26.996879], [-48.654385, -26.996938], [-48.65417, -26.997003], [-48.653948, -26.997064], [-48.653371, -26.997209], [-48.653067, -26.99729], [-48.652786, -26.997366], [-48.651681, -26.997689], [-48.650761, -26.997958], [-48.650475, -26.99811], [-48.650239, -26.99824], [-48.649888, -26.998429], [-48.649223, -26.998663], [-48.647326, -26.999221], [-48.64687, -26.999356], [-48.646782, -26.999389], [-48.646605, -26.999466], [-48.646529, -26.999535], [-48.646447, -26.999641], [-48.646429, -26.999675], [-48.646397, -26.999783], [-48.646387, -26.999883], [-48.646409, -27.000238], [-48.646466, -27.000552], [-48.646493, -27.000725], [-48.646513, -27.000866], [-48.646568, -27.001376], [-48.646583, -27.001481], [-48.646785, -27.00282], [-48.646834, -27.003146], [-48.646861, -27.003195], [-48.646896, -27.003228], [-48.646959, -27.003269], [-48.647028, -27.003316], [-48.647313, -27.003508], [-48.647381, -27.003556], [-48.647506, -27.003642], [-48.647598, -27.003704], [-48.648571, -27.004366], [-48.648499, -27.004413], [-48.647685, -27.004943], [-48.6474, -27.005229], [-48.647313, -27.00532], [-48.647265, -27.00538], [-48.647236, -27.00544], [-48.647219, -27.005512], [-48.647215, -27.005576], [-48.647215, -27.005623], [-48.647219, -27.005669], [-48.64727, -27.005986], [-48.64731, -27.006198], [-48.647332, -27.00629], [-48.647387, -27.006458], [-48.647415, -27.006541], [-48.647457, -27.006616], [-48.647538, -27.006713], [-48.647634, -27.006806], [-48.647794, -27.006931], [-48.648501, -27.007414], [-48.648592, -27.007476], [-48.648659, -27.007532], [-48.648753, -27.00764], [-48.648813, -27.00773], [-48.648883, -27.007851], [-48.648912, -27.007914], [-48.648958, -27.008082], [-48.648984, -27.008236], [-48.649002, -27.008523], [-48.649039, -27.009191], [-48.649046, -27.009443], [-48.649037, -27.009578], [-48.649005, -27.009776], [-48.648959, -27.009902], [-48.648885, -27.010128], [-48.648723, -27.010466], [-48.648635, -27.010541], [-48.64861, -27.010591], [-48.648586, -27.010626], [-48.648357, -27.010955], [-48.648289, -27.011055], [-48.64811, -27.011323], [-48.648042, -27.011421], [-48.647974, -27.011524], [-48.64791, -27.011646], [-48.647885, -27.011731], [-48.647874, -27.011806], [-48.647876, -27.01192], [-48.647899, -27.012303], [-48.647919, -27.012683], [-48.647939, -27.01285], [-48.647997, -27.013002], [-48.648074, -27.013125], [-48.648145, -27.013213], [-48.648263, -27.013317], [-48.648535, -27.013452], [-48.648852, -27.013571], [-48.649923, -27.013912], [-48.649995, -27.013903], [-48.650079, -27.013919], [-48.650133, -27.013919], [-48.650314, -27.013916], [-48.650373, -27.013927], [-48.650537, -27.013968], [-48.650636, -27.01401], [-48.65073, -27.014055], [-48.650937, -27.014191], [-48.650991, -27.014245], [-48.651225, -27.014294], [-48.651581, -27.014337], [-48.651854, -27.014351], [-48.651944, -27.014358], [-48.652049, -27.014367], [-48.65227, -27.014386], [-48.652457, -27.014412], [-48.652607, -27.014449], [-48.65272, -27.014513], [-48.652823, -27.014596], [-48.652899, -27.014715], [-48.652928, -27.014842], [-48.652916, -27.015052], [-48.652906, -27.015122], [-48.652887, -27.015248], [-48.652808, -27.015727], [-48.652761, -27.015942], [-48.652741, -27.016126], [-48.652739, -27.016388], [-48.65277, -27.016858], [-48.652902, -27.017109], [-48.65297, -27.017221], [-48.653068, -27.017351], [-48.653157, -27.017454], [-48.65326, -27.017546], [-48.653482, -27.0177], [-48.654281, -27.017917], [-48.654417, -27.017957], [-48.654504, -27.017986], [-48.654576, -27.018014], [-48.654666, -27.018061], [-48.654753, -27.018113], [-48.655317, -27.018497], [-48.656904, -27.016664], [-48.657401, -27.016101], [-48.65769, -27.015782], [-48.657954, -27.015491], [-48.657953, -27.015455], [-48.65797, -27.015422], [-48.658001, -27.0154], [-48.65804, -27.015391], [-48.65808, -27.015398], [-48.658111, -27.01542], [-48.658129, -27.015452], [-48.65813, -27.015488], [-48.658113, -27.015521], [-48.658082, -27.015543], [-48.658034, -27.015551], [-48.658004, -27.015545], [-48.657707, -27.015869], [-48.657526, -27.016082], [-48.657647, -27.016143], [-48.657766, -27.016204], [-48.657871, -27.016259], [-48.657766, -27.016204], [-48.657647, -27.016143], [-48.657526, -27.016082], [-48.656979, -27.016719], [-48.65606, -27.017774], [-48.655398, -27.018546], [-48.655539, -27.018637], [-48.655661, -27.018706], [-48.655776, -27.018767], [-48.655901, -27.018825], [-48.656064, -27.018889], [-48.656391, -27.019007], [-48.657036, -27.01919], [-48.657262, -27.019254], [-48.657246, -27.019312], [-48.656998, -27.020188], [-48.656922, -27.020445], [-48.656852, -27.020693], [-48.656837, -27.020746], [-48.656797, -27.020913], [-48.656768, -27.020976], [-48.656735, -27.020997], [-48.656656, -27.021004], [-48.656241, -27.021047], [-48.656167, -27.021054], [-48.656037, -27.021119], [-48.655895, -27.021139], [-48.655389, -27.021212], [-48.65464, -27.02132], [-48.654486, -27.02134], [-48.654175, -27.021379], [-48.654025, -27.021398], [-48.65323, -27.0215], [-48.652565, -27.021585], [-48.65199, -27.021659], [-48.652025, -27.022207], [-48.652052, -27.022822], [-48.652054, -27.022931], [-48.652023, -27.022987], [-48.651988, -27.023029], [-48.651891, -27.023102], [-48.651789, -27.023158], [-48.651311, -27.023276], [-48.650745, -27.023448], [-48.650419, -27.023544], [-48.649856, -27.023712], [-48.649931, -27.024912], [-48.649987, -27.025814], [-48.650027, -27.026448], [-48.649987, -27.025814], [-48.650714, -27.025712], [-48.651347, -27.025623], [-48.651406, -27.025614], [-48.651396, -27.025293]], "type": "LineString"}}